{
  "links" : {
    "next" : "https://api.nasa.gov/neo/rest/v1/feed?start_date=2011-09-23&end_date=2011-09-23&detailed=true&api_key=t0TVs3DtDT2H8Oy2Zy8m2eVrNsAVKAexjcZXUckd",
    "prev" : "https://api.nasa.gov/neo/rest/v1/feed?start_date=2011-09-21&end_date=2011-09-21&detailed=true&api_key=t0TVs3DtDT2H8Oy2Zy8m2eVrNsAVKAexjcZXUckd",
    "self" : "https://api.nasa.gov/neo/rest/v1/feed?start_date=2011-09-22&end_date=2011-09-22&detailed=true&api_key=t0TVs3DtDT2H8Oy2Zy8m2eVrNsAVKAexjcZXUckd"
  },
  "element_count" : 7,
  "near_earth_objects" : {
    "2011-09-22" : [ {
      "links" : {
        "self" : "https://api.nasa.gov/neo/rest/v1/neo/3766634?api_key=t0TVs3DtDT2H8Oy2Zy8m2eVrNsAVKAexjcZXUckd"
      },
      "neo_reference_id" : "3766634",
      "name" : "(2017 BM3)",
      "nasa_jpl_url" : "http://ssd.jpl.nasa.gov/sbdb.cgi?sstr=3766634",
      "absolute_magnitude_h" : 23.0,
      "estimated_diameter" : {
        "kilometers" : {
          "estimated_diameter_min" : 0.0667659413,
          "estimated_diameter_max" : 0.1492931834
        },
        "meters" : {
          "estimated_diameter_min" : 66.7659413495,
          "estimated_diameter_max" : 149.2931834393
        },
        "miles" : {
          "estimated_diameter_min" : 0.0414864197,
          "estimated_diameter_max" : 0.0927664547
        },
        "feet" : {
          "estimated_diameter_min" : 219.0483710172,
          "estimated_diameter_max" : 489.807047955
        }
      },
      "is_potentially_hazardous_asteroid" : false,
      "close_approach_data" : [ {
        "close_approach_date" : "2011-09-22",
        "epoch_date_close_approach" : 1316674800000,
        "relative_velocity" : {
          "kilometers_per_second" : "18.0991790207",
          "kilometers_per_hour" : "65157.0444745038",
          "miles_per_hour" : "40486.0535513938"
        },
        "miss_distance" : {
          "astronomical" : "0.3829746564",
          "lunar" : "148.977142334",
          "kilometers" : "57292192",
          "miles" : "35599720"
        },
        "orbiting_body" : "Earth"
      } ],
      "orbital_data" : {
        "orbit_id" : "16",
        "orbit_determination_date" : "2017-04-06 08:20:55",
        "orbit_uncertainty" : "5",
        "minimum_orbit_intersection" : ".0105915",
        "jupiter_tisserand_invariant" : "6.140",
        "epoch_osculation" : "2458000.5",
        "eccentricity" : ".1774517934488973",
        "semi_major_axis" : ".9799528406450985",
        "inclination" : "13.73449897441369",
        "ascending_node_longitude" : "318.4721292415427",
        "orbital_period" : "354.3285859956555",
        "perihelion_distance" : ".8060584515772843",
        "perihelion_argument" : "286.1494035924774",
        "aphelion_distance" : "1.153847229712913",
        "perihelion_time" : "2457878.116481377169",
        "mean_anomaly" : "124.3423998106644",
        "mean_motion" : "1.016006086521097",
        "equinox" : "J2000"
      }
    } ]
  }
}